     3.02           N: GNSS NAV DATA    E: GALILEO          RINEX VERSION / TYPE
Converto v3.5.2     IGN                 20190103 013015 UTC PGM / RUN BY / DATE
GAL    2.8750E+01  3.5938E-01  8.5449E-04  0.0000E+00       IONOSPHERIC CORR
GAUT  0.0000000000E+00 0.000000000E+00 172800 2034          TIME SYSTEM CORR
GPGA -1.6589183360E-09-1.199040867E-14 259200 2034          TIME SYSTEM CORR
    18    18  1929     7                                    LEAP SECONDS
                                                            END OF HEADER
E30 2019 01 02 07 20 00 5.221421772148D-03-3.048228336411D-11 0.000000000000D+00
     9.200000000000D+01 1.781562500000D+02 2.683326057015D-09-2.904873025221D+00
     8.242204785347D-06 2.884576097131D-04 5.809590220451D-06 5.440622777939D+03
     2.856000000000D+05-3.166496753693D-08-2.820726862367D+00-3.725290298462D-08
     9.878585325016D-01 2.288125000000D+02 4.763338391135D-01-5.567374760649D-09
     3.407284784231D-10 5.170000000000D+02 2.034000000000D+03 0.000000000000D+00
     3.120000000000D+00 0.000000000000D+00-2.793967723846D-09-3.492459654808D-09
     2.862640000000D+05
E30 2019 01 02 07 30 00 5.221403436735D-03-3.048228336411D-11 0.000000000000D+00
     9.300000000000D+01 1.787500000000D+02 2.679040164205D-09-2.830272660308D+00
     8.262693881989D-06 2.883777488023D-04 5.828216671944D-06 5.440622980118D+03
     2.862000000000D+05-2.980232238770D-08-2.820730208061D+00-3.725290298462D-08
     9.878587314585D-01 2.283125000000D+02 4.761182430245D-01-5.567731918383D-09
     3.417999516257D-10 5.170000000000D+02 2.034000000000D+03 0.000000000000D+00
     3.120000000000D+00 0.000000000000D+00-2.793967723846D-09-3.492459654808D-09
     2.868640000000D+05
E30 2019 01 02 07 40 00 5.221385101322D-03-3.048228336411D-11 0.000000000000D+00
     9.400000000000D+01 1.790000000000D+02 2.676540060065D-09-2.755775849514D+00
     8.268281817436D-06 2.883424749598D-04 5.835667252541D-06 5.440623077393D+03
     2.868000000000D+05-2.793967723846D-08-2.820733553755D+00-3.539025783539D-08
     9.878589304153D-01 2.280000000000D+02 4.760061630188D-01-5.568446233851D-09
     3.432285825624D-10 5.170000000000D+02 2.034000000000D+03 0.000000000000D+00
     3.120000000000D+00 0.000000000000D+00-2.793967723846D-09-3.492459654808D-09
     2.874640000000D+05
E30 2019 01 02 07 50 00 5.221366824117D-03-3.048228336411D-11 0.000000000000D+00
     9.500000000000D+01 1.789375000000D+02 2.674754271394D-09-2.681407610201D+00
     8.260831236839D-06 2.883498091251D-04 5.828216671944D-06 5.440623060226D+03
     2.874000000000D+05-2.793967723846D-08-2.820736886282D+00-3.725290298462D-08
     9.878591410755D-01 2.280625000000D+02 4.760226179213D-01-5.568089076117D-09
     3.417999516257D-10 5.170000000000D+02 2.034000000000D+03 0.000000000000D+00
     3.120000000000D+00 0.000000000000D+00-2.793967723846D-09-3.492459654808D-09
     2.880640000000D+05
E30 2019 01 02 08 00 00 5.221348430496D-03-3.049649421882D-11 0.000000000000D+00
     9.600000000000D+01 1.786875000000D+02 2.674754271394D-09-2.607196777948D+00
     8.247792720795D-06 2.883939305320D-04 5.802139639854D-06 5.440622926712D+03
     2.880000000000D+05-2.980232238770D-08-2.820740221735D+00-3.725290298462D-08
     9.878593502728D-01 2.285000000000D+02 4.761964564767D-01-5.567731918383D-09
     3.407284784231D-10 5.170000000000D+02 2.034000000000D+03 0.000000000000D+00
     3.120000000000D+00 0.000000000000D+00-2.793967723846D-09-3.492459654808D-09
     2.886640000000D+05
E30 2019 01 02 08 10 00 5.221330036875D-03-3.051070507354D-11 0.000000000000D+00
     9.700000000000D+01 1.783750000000D+02 2.676540060065D-09-2.533156396132D+00
     8.231028914452D-06 2.884675050154D-04 5.755573511124D-06 5.440622678757D+03
     2.886000000000D+05-3.166496753693D-08-2.820743551337D+00-4.097819328308D-08
     9.878595609330D-01 2.294062500000D+02 4.765407205995D-01-5.567374760649D-09
     3.385855320179D-10 5.170000000000D+02 2.034000000000D+03 0.000000000000D+00
     3.120000000000D+00 0.000000000000D+00-2.793967723846D-09-3.492459654808D-09
     2.892640000000D+05
E30 2019 01 02 08 20 00 5.221311701462D-03-3.051070507354D-11 0.000000000000D+00
     9.800000000000D+01 1.781250000000D+02 2.679754479673D-09-2.459285625038D+00
     8.217990398407D-06 2.885614521801D-04 5.688518285751D-06 5.440622325897D+03
     2.892000000000D+05-3.166496753693D-08-2.820746875087D+00-4.470348358154D-08
     9.878597715932D-01 2.307500000000D+02 4.770545808153D-01-5.567017602914D-09
     3.360854278785D-10 5.170000000000D+02 2.034000000000D+03 0.000000000000D+00
     3.120000000000D+00 0.000000000000D+00-2.793967723846D-09-3.492459654808D-09
     2.898640000000D+05
E30 2019 01 02 08 30 00 5.221293424256D-03-3.051070507354D-11 0.000000000000D+00
     9.900000000000D+01 1.780937500000D+02 2.684040372484D-09-2.385574168648D+00
     8.217990398407D-06 2.886650618166D-04 5.606561899185D-06 5.440621883392D+03
     2.898000000000D+05-3.166496753693D-08-2.820750194448D+00-5.029141902924D-08
     9.878599837164D-01 2.324687500000D+02 4.777277498841D-01-5.567017602914D-09
     3.325138505366D-10 5.130000000000D+02 2.034000000000D+03 0.000000000000D+00
     3.120000000000D+00 0.000000000000D+00-2.793967723846D-09-3.492459654808D-09
     2.904640000000D+05
E30 2019 01 02 08 40 00 5.221275088843D-03-3.051070507354D-11 0.000000000000D+00
     1.000000000000D+02 1.783750000000D+02 2.689754896231D-09-2.311991538288D+00
     8.229166269302D-06 2.887662267312D-04 5.513429641724D-06 5.440621376038D+03
     2.904000000000D+05-3.166496753693D-08-2.820753512346D+00-5.587935447693D-08
     9.878601899878D-01 2.344062500000D+02 4.785297508335D-01-5.567017602914D-09
     3.285851154604D-10 5.130000000000D+02 2.034000000000D+03 0.000000000000D+00
     3.120000000000D+00 0.000000000000D+00-2.793967723846D-09-3.492459654808D-09
     2.910640000000D+05
E30 2019 01 02 10 30 00 5.221073399298D-03-3.053912678297D-11 0.000000000000D+00
     1.110000000000D+02 1.851875000000D+02 2.796187901021D-09-1.498930683885D+00
     8.555129170418D-06 2.890345640481D-04 5.053356289864D-06 5.440618335724D+03
     2.970000000000D+05 1.043081283569D-07-2.820789081736D+00 9.685754776001D-08
     9.878619440266D-01 2.440625000000D+02 4.837012613334D-01-5.700237437770D-09
     2.146517982518D-10 5.170000000000D+02 2.034000000000D+03 0.000000000000D+00
     3.120000000000D+00 0.000000000000D+00-2.793967723846D-09-3.492459654808D-09
     3.014350000000D+05
E30 2019 01 02 11 50 00 5.220927007031D-03-3.053912678297D-11 0.000000000000D+00
     1.190000000000D+02 1.784687500000D+02 2.755829077057D-09-9.003914841651D-01
     8.275732398033D-06 2.899024402723D-04 4.773959517479D-06 5.440621030807D+03
     3.018000000000D+05-7.823109626770D-08-2.820816400268D+00-5.401670932770D-08
     9.878629066267D-01 2.513125000000D+02 4.802418462863D-01-5.712737958466D-09
     2.707255625206D-10 5.170000000000D+02 2.034000000000D+03 0.000000000000D+00
     3.120000000000D+00 0.000000000000D+00-2.793967723846D-09-3.492459654808D-09
     3.025750000000D+05
E30 2019 01 02 12 00 00 5.220908788033D-03-3.053912678297D-11 0.000000000000D+00
     1.200000000000D+02 1.785312500000D+02 2.745828660499D-09-8.258403142611D-01
     8.275732398033D-06 2.900020917878D-04 4.742294549942D-06 5.440621252060D+03
     3.024000000000D+05-6.705522537231D-08-2.820819857144D+00-6.519258022308D-08
     9.878631172869D-01 2.521562500000D+02 4.800755783320D-01-5.702737541909D-09
     2.728685089258D-10 5.130000000000D+02 2.034000000000D+03 0.000000000000D+00
     3.120000000000D+00 0.000000000000D+00-2.793967723846D-09-3.492459654808D-09
     3.030640000000D+05
E30 2019 01 02 12 10 00 5.220890569035D-03-3.053912678297D-11 0.000000000000D+00
     1.210000000000D+02 1.785937500000D+02 2.678683006471D-09-7.514301623453D-01
     8.281320333481D-06 2.900238614529D-04 4.723668098450D-06 5.440621299744D+03
     3.030000000000D+05 8.754432201385D-08-2.820823553938D+00-1.862645149231D-08
     9.878639950377D-01 2.523437500000D+02 4.800503956601D-01-5.577375177206D-09
     2.625109346341D-10 5.130000000000D+02 2.034000000000D+03 0.000000000000D+00
     3.120000000000D+00 0.000000000000D+00-2.793967723846D-09-3.492459654808D-09
     3.036640000000D+05
E30 2019 01 02 12 20 00 5.220872350037D-03-3.052491592825D-11 0.000000000000D+00
     1.220000000000D+02 1.784375000000D+02 2.679397321939D-09-6.771222406078D-01
     8.279457688332D-06 2.899596001953D-04 4.734843969345D-06 5.440621164322D+03
     3.036000000000D+05 9.685754776001D-08-2.820826911335D+00-1.490116119385D-08
     9.878641925317D-01 2.518125000000D+02 4.801272120256D-01-5.569874864788D-09
     2.617966191657D-10 5.130000000000D+02 2.034000000000D+03 0.000000000000D+00
     3.120000000000D+00 0.000000000000D+00-2.793967723846D-09-3.492459654808D-09
     3.042640000000D+05
E30 2019 01 02 12 30 00 5.220854131039D-03-3.052491592825D-11 0.000000000000D+00
     1.230000000000D+02 1.781562500000D+02 2.686540476623D-09-6.028202041897D-01
     8.268281817436D-06 2.898776438087D-04 4.759058356285D-06 5.440620992661D+03
     3.042000000000D+05 8.940696716309D-08-2.820830245325D+00-2.235174179077D-08
     9.878643022505D-01 2.511875000000D+02 4.802099107846D-01-5.578089492674D-09
     2.635824078367D-10 5.130000000000D+02 2.034000000000D+03 0.000000000000D+00
     3.120000000000D+00 0.000000000000D+00-2.793967723846D-09-3.492459654808D-09
     3.048640000000D+05
E30 2019 01 02 13 40 00 5.220727121923D-03-3.045386165468D-11 0.000000000000D+00
     2.000000000000D+00 1.712500000000D+02 2.683326057015D-09-8.200738978838D-02
     7.973983883858D-06 2.888042945415D-04 4.939734935760D-06 5.440618820190D+03
     3.084000000000D+05 8.568167686462D-08-2.820853457446D+00 6.705522537231D-08
     9.878657666315D-01 2.470000000000D+02 4.800903274720D-01-5.512729627317D-09
     2.314382117591D-10 5.130000000000D+02 2.034000000000D+03 0.000000000000D+00
     3.120000000000D+00 0.000000000000D+00-2.793967723846D-09-3.492459654808D-09
     3.095140000000D+05
